NORAD_CAT_ID,OBJECT_NAME,OBJECT_TYPE,EPOCH,MEAN_MOTION,ECCENTRICITY,INCLINATION,RA_OF_ASC_NODE,ARG_OF_PERICENTER,MEAN_ANOMALY,BSTAR,MEAN_MOTION_DOT,MEAN_MOTION_DDOT,TLE_LINE0,TLE_LINE1,TLE_LINE2,SEMIMAJOR_AXIS,PERIOD,APOGEE,PERIGEE,DECAYED
53924.0,STARLINK-5001,PAYLOAD,2024-05-30 12:17:45,15.08843734,9.51e-05,53.2183,338.8101,95.3634,264.7466,0.000109,1.448e-05,0.0,0 STARLINK-5001,1 53924U 22119AQ  24151.51233608  .00001448  00000-0  10900-3 0  9999,2 53924  53.2183 338.8101 0000951  95.3634 264.7466 15.08843734 93624,6917.869,95.437,540.392,539.076,0.0
53924.0,STARLINK-5001,PAYLOAD,2024-05-30 20:14:41,15.08848833,0.0001074,53.2185,337.3229,75.5456,284.5655,0.00011401,1.528e-05,0.0,0 STARLINK-5001,1 53924U 22119AQ  24151.84353334  .00001528  00000-0  11401-3 0  9990,2 53924  53.2185 337.3229 0001074  75.5456 284.5655 15.08848833 94097,6917.853,95.437,540.461,538.975,0.0
53924.0,STARLINK-5001,PAYLOAD,2024-05-31 12:08:33,15.08846592,0.0001332,53.219,334.3506,67.9575,292.1559,5.0855e-05,5.22e-06,0.0,0 STARLINK-5001,1 53924U 22119AQ  24152.50593756  .00000522  00000-0  50855-4 0  9998,2 53924  53.2190 334.3506 0001332  67.9575 292.1559 15.08846592 94191,6917.86,95.437,540.647,538.804,0.0
53924.0,STARLINK-5001,PAYLOAD,2024-05-31 18:30:05,15.08848061,9.88e-05,53.2181,333.1581,90.2888,269.8218,7.1883e-05,8.57e-06,0.0,0 STARLINK-5001,1 53924U 22119AQ  24152.77089369  .00000857  00000-0  71883-4 0  9992,2 53924  53.2181 333.1581 0000988  90.2888 269.8218 15.08848061 93817,6917.856,95.437,540.404,539.037,0.0
53924.0,STARLINK-5001,PAYLOAD,2024-06-01 11:59:20,15.0883874,0.0001005,53.2177,329.8872,87.9026,272.2081,6.7596e-05,7.88e-06,0.0,0 STARLINK-5001,1 53924U 22119AQ  24153.49953904  .00000788  00000-0  67596-4 0  9996,2 53924  53.2177 329.8872 0001005  87.9026 272.2081 15.08838740 93926,6917.884,95.438,540.444,539.054,0.0
53924.0,STARLINK-5001,PAYLOAD,2024-06-02 11:50:07,15.08839458,0.000125,53.2185,325.4262,84.5837,275.5297,5.5471e-05,5.95e-06,0.0,0 STARLINK-5001,1 53924U 22119AQ  24154.49314015  .00000595  00000-0  55471-4 0  9996,2 53924  53.2185 325.4262 0001250  84.5837 275.5297 15.08839458 94490,6917.882,95.438,540.612,538.882,0.0
53924.0,STARLINK-5001,PAYLOAD,2024-06-03 03:43:58,15.08843978,0.0001134,53.2185,322.4527,81.3071,278.8049,3.7366e-05,3.07e-06,0.0,0 STARLINK-5001,1 53924U 22119AQ  24155.15553812  .00000307  00000-0  37366-4 0  9994,2 53924  53.2185 322.4527 0001134  81.3071 278.8049 15.08843978 94175,6917.868,95.437,540.518,538.949,0.0
53924.0,STARLINK-5001,PAYLOAD,2024-06-03 11:40:54,15.08840878,0.0001199,53.2185,320.9659,82.1313,277.9816,9.8806e-05,1.285e-05,0.0,0 STARLINK-5001,1 53924U 22119AQ  24155.48673962  .00001285  00000-0  98806-4 0  9991,2 53924  53.2185 320.9659 0001199  82.1313 277.9816 15.08840878 94643,6917.878,95.437,540.572,538.913,0.0
53924.0,STARLINK-5001,PAYLOAD,2024-06-03 18:02:26,15.08850021,0.0001361,53.22,319.7768,82.1005,278.0142,0.00014714,2.055e-05,0.0,0 STARLINK-5001,1 53924U 22119AQ  24155.75169284  .00002055  00000-0  14714-3 0  9999,2 53924  53.2200 319.7768 0001361  82.1005 278.0142 15.08850021 94686,6917.85,95.437,540.656,538.773,0.0
53924.0,STARLINK-5001,PAYLOAD,2024-06-04 03:34:44,15.08850413,7.72e-05,53.2167,317.991,63.4929,296.6142,0.00016963,2.414e-05,0.0,0 STARLINK-5001,1 53924U 22119AQ  24156.14913002  .00002414  00000-0  16963-3 0  9995,2 53924  53.2167 317.9910 0000772  63.4929 296.6142 15.08850413 94747,6917.849,95.437,540.248,539.18,0.0
53924.0,STARLINK-5001,PAYLOAD,2024-06-04 17:53:14,15.08839908,0.0001712,53.2229,315.315,79.9698,280.1487,7.9231e-05,9.73e-06,0.0,0 STARLINK-5001,1 53924U 22119AQ  24156.74530292  .00000973  00000-0  79231-4 0  9993,2 53924  53.2229 315.3150 0001712  79.9698 280.1487 15.08839908 94414,6917.881,95.438,540.93,538.561,0.0
53924.0,STARLINK-5001,PAYLOAD,2024-06-04 21:04:00,15.08838275,0.0001565,53.2247,314.7223,85.4389,274.6782,6.2209e-05,7.02e-06,0.0,0 STARLINK-5001,1 53924U 22119AQ  24156.87778440  .00000702  00000-0  62209-4 0  9993,2 53924  53.2247 314.7223 0001565  85.4389 274.6782 15.08838275 94853,6917.886,95.438,540.833,538.668,0.0
53924.0,STARLINK-5001,PAYLOAD,2024-06-05 03:25:33,15.08828919,0.0001303,53.2188,313.5317,82.749,277.3651,3.4128e-05,2.55e-06,0.0,0 STARLINK-5001,1 53924U 22119AQ  24157.14275012  .00000255  00000-0  34128-4 0  9993,2 53924  53.2188 313.5317 0001303  82.7490 277.3651 15.08828919 94478,6917.914,95.438,540.681,538.878,0.0
53924.0,STARLINK-5001,PAYLOAD,2024-06-05 19:19:24,15.08843259,0.000104,53.2153,310.5571,79.1541,280.9568,2.5417e-05,1.17e-06,0.0,0 STARLINK-5001,1 53924U 22119AQ  24157.80514277  .00000117  00000-0  25417-4 0  9993,2 53924  53.2153 310.5571 0001040  79.1541 280.9568 15.08843259 94576,6917.87,95.437,540.455,539.016,0.0
53924.0,STARLINK-5001,PAYLOAD,2024-06-06 03:16:19,15.08844911,0.000134,53.2182,309.0695,74.3353,285.7787,8.4975e-05,1.065e-05,0.0,0 STARLINK-5001,1 53924U 22119AQ  24158.13634035  .00001065  00000-0  84975-4 0  9992,2 53924  53.2182 309.0695 0001340  74.3353 285.7787 15.08844911 95044,6917.865,95.437,540.657,538.803,0.0
53924.0,STARLINK-5001,PAYLOAD,2024-06-06 15:59:25,15.08840925,0.0001692,53.2193,306.6922,76.6481,283.4699,0.00016748,2.378e-05,0.0,0 STARLINK-5001,1 53924U 22119AQ  24158.66626464  .00002378  00000-0  16748-3 0  9997,2 53924  53.2193 306.6922 0001692  76.6481 283.4699 15.08840925 95126,6917.878,95.437,540.913,538.572,0.0
53924.0,STARLINK-5001,PAYLOAD,2024-06-07 09:28:40,15.08834463,0.0001823,53.2134,303.4233,78.1958,281.9239,9.5178e-05,1.227e-05,0.0,0 STARLINK-5001,1 53924U 22119AQ  24159.39491111  .00001227  00000-0  95178-4 0  9994,2 53924  53.2134 303.4233 0001823  78.1958 281.9239 15.08834463 94811,6917.897,95.438,541.023,538.501,0.0
53924.0,STARLINK-5001,PAYLOAD,2024-06-07 15:50:12,15.08839097,0.000175,53.2101,302.2322,82.1243,277.9947,6.9088e-05,8.12e-06,0.0,0 STARLINK-5001,1 53924U 22119AQ  24159.65986990  .00000812  00000-0  69088-4 0  9997,2 53924  53.2101 302.2322 0001750  82.1243 277.9947 15.08839097 95272,6917.883,95.438,540.959,538.538,0.0
53924.0,STARLINK-5001,PAYLOAD,2024-06-08 02:57:54,15.08844291,0.0001882,53.215,300.1498,92.8846,267.2362,8.815e-05,1.115e-05,0.0,0 STARLINK-5001,1 53924U 22119AQ  24160.12354590  .00001115  00000-0  88150-4 0  9994,2 53924  53.2150 300.1498 0001882  92.8846 267.2362 15.08844291 94926,6917.867,95.437,541.034,538.43,0.0
53924.0,STARLINK-5001,PAYLOAD,2024-06-08 12:30:12,15.08852999,0.0001737,53.2147,298.3654,87.4476,272.6715,0.00018066,2.589e-05,0.0,0 STARLINK-5001,1 53924U 22119AQ  24160.52098032  .00002589  00000-0  18066-3 0  9998,2 53924  53.2147 298.3654 0001737  87.4476 272.6715 15.08852999 95402,6917.841,95.437,540.907,538.504,0.0
53924.0,STARLINK-5001,PAYLOAD,2024-06-08 18:51:44,15.08861098,0.000164,53.2156,297.1747,103.1876,256.9299,0.00036536,5.535e-05,0.0,0 STARLINK-5001,1 53924U 22119AQ  24160.78593509  .00005535  00000-0  36536-3 0  9991,2 53924  53.2156 297.1747 0001640 103.1876 256.9299 15.08861098 95025,6917.816,95.436,540.815,538.546,0.0
53924.0,STARLINK-5001,PAYLOAD,2024-06-09 12:21:00,15.08837211,0.0001223,53.2168,293.9031,109.9409,250.1715,-4.024e-05,-9.28e-06,0.0,0 STARLINK-5001,1 53924U 22119AQ  24161.51458578 -.00000928  00000-0 -40240-4 0  9990,2 53924  53.2168 293.9031 0001223 109.9409 250.1715 15.08837211 95132,6917.889,95.438,540.6,538.908,0.0
53924.0,STARLINK-5001,PAYLOAD,2024-06-09 15:31:46,15.08839245,0.0001254,53.2167,293.3094,104.9898,255.1233,2.7487e-05,1.5e-06,0.0,0 STARLINK-5001,1 53924U 22119AQ  24161.64706595  .00000150  00000-0  27487-4 0  9992,2 53924  53.2167 293.3094 0001254 104.9898 255.1233 15.08839245 95572,6917.883,95.438,540.615,538.88,0.0
53924.0,STARLINK-5001,PAYLOAD,2024-06-09 17:07:09,15.08840021,0.0001316,53.2172,293.0124,103.8275,256.2864,3.9266e-05,3.37e-06,0.0,0 STARLINK-5001,1 53924U 22119AQ  24161.71330526  .00000337  00000-0  39266-4 0  9992,2 53924  53.2172 293.0124 0001316 103.8275 256.2864 15.08840021 95582,6917.88,95.438,540.656,538.835,0.0
53924.0,STARLINK-5001,PAYLOAD,2024-06-10 15:22:33,15.08850579,0.0001188,53.2178,288.8534,102.0989,258.0136,0.00067167,0.00010421,0.0,0 STARLINK-5001,1 53924U 22119AQ  24162.64066575  .00010421  00000-0  67167-3 0  9990,2 53924  53.2178 288.8534 0001188 102.0989 258.0136 15.08850579 95722,6917.848,95.437,540.535,538.891,0.0
53924.0,STARLINK-5001,PAYLOAD,2024-06-11 13:37:57,15.08845749,0.000103,53.2164,284.6886,92.9245,267.1865,0.00027681,4.121e-05,0.0,0 STARLINK-5001,1 53924U 22119AQ  24163.56802589  .00004121  00000-0  27681-3 0  9992,2 53924  53.2164 284.6886 0001030  92.9245 267.1865 15.08845749 95867,6917.863,95.437,540.44,539.015,0.0
53924.0,STARLINK-5001,PAYLOAD,2024-06-12 00:45:39,15.08846375,0.0001268,53.2168,282.6069,80.044,280.0695,0.00022114,3.234e-05,0.0,0 STARLINK-5001,1 53924U 22119AQ  24164.03170489  .00003234  00000-0  22114-3 0  9992,2 53924  53.2168 282.6069 0001268  80.0440 280.0695 15.08846375 95513,6917.861,95.437,540.603,538.849,0.0
53924.0,STARLINK-5001,PAYLOAD,2024-06-12 11:53:21,15.08826677,0.0001302,53.2174,280.5282,90.8595,269.2547,-0.00025236,-4.3e-05,0.0,0 STARLINK-5001,1 53924U 22119AQ  24164.49539231 -.00004300  00000-0 -25236-3 0  9991,2 53924  53.2174 280.5282 0001302  90.8595 269.2547 15.08826677 95588,6917.921,95.438,540.687,538.885,0.0
53924.0,STARLINK-5001,PAYLOAD,2024-06-12 18:14:54,15.08834711,0.0001255,53.2176,279.3392,85.585,274.5285,-6.4225e-05,-1.31e-05,0.0,0 STARLINK-5001,1 53924U 22119AQ  24164.76035250 -.00001310  00000-0 -64225-4 0  9993,2 53924  53.2176 279.3392 0001255  85.5850 274.5285 15.08834711 96048,6917.897,95.438,540.63,538.893,0.0
53924.0,STARLINK-5001,PAYLOAD,2024-06-13 14:54:55,15.0884571,0.0001269,53.2176,275.4696,81.2722,278.8414,0.000157,2.212e-05,0.0,0 STARLINK-5001,1 53924U 22119AQ  24165.62147003  .00002212  00000-0  15700-3 0  9992,2 53924  53.2176 275.4696 0001269  81.2722 278.8414 15.08845710 96174,6917.863,95.437,540.606,538.85,0.0
